QIANFAN-172             
1 69389U 26124H   26182.90291311  .00000114  00000+0  46950-4 0  9998
2 69389  88.9986   0.3629 0003824 127.0800 233.0740 14.19640666  3904
QIANFAN-173             
1 69390U 26124J   26182.89144821  .00000099  00000+0  39459-4 0  9999
2 69390  88.9986   0.3612 0003970 119.3572 240.8015 14.20511924  3907
QIANFAN-174             
1 69391U 26124K   26182.88461498  .00000117  00000+0  47479-4 0  9993
2 69391  88.9986   0.3601 0004269 123.7532 236.4066 14.20880752  3908
QIANFAN-175             
1 69392U 26124L   26182.87951438  .00000109  00000+0  43187-4 0  9994
2 69392  88.9986   0.3593 0005016 134.7071 225.4529 14.21342101  3904
QIANFAN-176             
1 69393U 26124M   26182.87275792  .00000125  00000+0  50166-4 0  9990
2 69393  88.9986   0.3583 0003983 138.6740 221.4753 14.21843523  3900
QIANFAN-177             
1 69394U 26124N   26182.79146179  .00000093  00000+0  34921-4 0  9993
2 69394  88.9986   0.3647 0004824 117.3390 242.8293 14.22732756  3892
QIANFAN-178             
1 69395U 26124P   26182.86712769  .00000115  00000+0  45215-4 0  9999
2 69395  88.9986   0.3573 0004249 126.5430 233.6153 14.22276522  3908
QIANFAN-179             
1 69396U 26124Q   26182.85661580  .00000109  00000+0  42088-4 0  9991
2 69396  88.9985   0.3556 0004213 123.3043 236.8553 14.23099513  3908
QIANFAN-180             
1 69397U 26124R   26182.78059300  .00000107  00000+0  40416-4 0  9996
2 69397  88.9986   0.3630 0004581 131.3195 228.8392 14.23621217  3890
QIANFAN-181             
1 69398U 26124S   26182.87593060  .00000082  00000+0  33789-4 0  9990
2 69398  88.9986   0.3774 0003061 103.2411 256.9119 14.16651235  3895
QIANFAN-182             
1 69399U 26124T   26182.84523274  .00000110  00000+0  45903-4 0  9991
2 69399  88.9986   0.3728 0003586 119.6446 240.5101 14.18740715  3890
QIANFAN-183             
1 69401U 26125A   26182.89242757  .00000407  00000+0  19736-3 0  9998
2 69401  88.9955 278.7851 0015759 129.7482 230.5098 14.16469291  3782
QIANFAN-184             
1 69402U 26125B   26182.88278337  .00000413  00000+0  19844-3 0  9998
2 69402  88.9956 278.7840 0016571 124.2440 236.0321 14.16889449  3780
QIANFAN-185             
1 69403U 26125C   26182.89051822  .00000415  00000+0  20256-3 0  9999
2 69403  88.9956 278.7850 0017429 124.6510 235.6324 14.16094233  3784
QIANFAN-186             
1 69404U 26125D   26182.87271183  .00000406  00000+0  19336-3 0  9999
2 69404  88.9956 278.7825 0015866 125.6376 234.6293 14.17440337  3786
QIANFAN-187             
1 69405U 26125E   26182.93226447  .00000418  00000+0  19571-3 0  9994
2 69405  88.9956 278.7726 0016398 126.4229 233.8475 14.18351146  3798
QIANFAN-188             
1 69406U 26125F   26182.91862583  .00000433  00000+0  19862-3 0  9990
2 69406  88.9956 278.7703 0016421 129.7862 230.4777 14.19443529  3796
QIANFAN-189             
1 69407U 26125G   26182.92497465  .00000410  00000+0  19040-3 0  9998
2 69407  88.9956 278.7716 0015644 127.3531 232.9086 14.18762354  3793
QIANFAN-190             
1 69408U 26125H   26182.91915411  .00000426  00000+0  19631-3 0  9997
2 69408  88.9956 278.7708 0016435 128.8222 231.4438 14.19225458  3792
QIANFAN-191             
1 69409U 26125J   26182.90714324  .00000437  00000+0  19826-3 0  9995
2 69409  88.9956 278.7687 0015836 127.7885 232.4742 14.20096924  3791
QIANFAN-192             
1 69410U 26125K   26182.90108873  .00000441  00000+0  19839-3 0  9992
2 69410  88.9957 278.7681 0016694 128.0608 232.2092 14.20522958  3795
QIANFAN-193             
1 69411U 26125L   26182.89382026  .00000450  00000+0  20084-3 0  9999
2 69411  88.9956 278.7668 0016577 128.4284 231.8398 14.20965589  3799
QIANFAN-194             
1 69412U 26125M   26182.88825825  .00000456  00000+0  20204-3 0  9998
2 69412  88.9956 278.7659 0015894 131.9019 228.3531 14.21407356  3789
QIANFAN-195             
1 69413U 26125N   26182.88311725  .00000459  00000+0  20175-3 0  9998
2 69413  88.9956 278.7652 0017087 130.5417 229.7265 14.21804765  3791
QIANFAN-196             
1 69414U 26125P   26182.87694566  .00000461  00000+0  20054-3 0  9994
2 69414  88.9957 278.7643 0017209 130.9239 229.3446 14.22299849  3794
QIANFAN-197             
1 69415U 26125Q   26182.87197202  .00000439  00000+0  18907-3 0  9999
2 69415  88.9956 278.7635 0015461 128.2107 232.0479 14.22744185  3781
QIANFAN-198             
1 69416U 26125R   26182.87857036  .00000449  00000+0  19612-3 0  9993
2 69416  88.9956 278.7646 0015771 127.6486 232.6139 14.22070935  3796
QIANFAN-199             
1 69417U 26125S   26182.93258032  .00000463  00000+0  19654-3 0  9994
2 69417  88.9956 278.7539 0017505 128.2152 232.0619 14.23634707  3805
QIANFAN-200             
1 69418U 26125T   26182.91242553  .00000423  00000+0  19333-3 0  9994
2 69418  88.9956 278.7696 0016515 126.6059 233.6653 14.19644407  3794
