OBJECT_NAME,OBJECT_ID,EPOCH,MEAN_MOTION,ECCENTRICITY,INCLINATION,RA_OF_ASC_NODE,ARG_OF_PERICENTER,MEAN_ANOMALY,EPHEMERIS_TYPE,CLASSIFICATION_TYPE,NORAD_CAT_ID,ELEMENT_SET_NO,REV_AT_EPOCH,BSTAR,MEAN_MOTION_DOT,MEAN_MOTION_DDOT
QIANFAN-172,2026-124H,2026-07-01T21:40:11.692704,14.19640666,.00038243,88.9986,0.3629,127.0800,233.0740,0,U,69389,999,390,.46949967E-4,.114E-5,0
QIANFAN-173,2026-124J,2026-07-01T21:23:41.125344,14.20511924,.00039706,88.9986,0.3612,119.3572,240.8015,0,U,69390,999,390,.39458578E-4,.99E-6,0
QIANFAN-174,2026-124K,2026-07-01T21:13:50.734272,14.20880752,.00042696,88.9986,0.3601,123.7532,236.4066,0,U,69391,999,390,.47479313E-4,.117E-5,0
QIANFAN-175,2026-124L,2026-07-01T21:06:30.042432,14.21342101,.00050163,88.9986,0.3593,134.7071,225.4529,0,U,69392,999,390,.43186994E-4,.109E-5,0
QIANFAN-176,2026-124M,2026-07-01T20:56:46.284288,14.21843523,.0003983,88.9986,0.3583,138.6740,221.4753,0,U,69393,999,390,.50166373E-4,.125E-5,0
QIANFAN-177,2026-124N,2026-07-01T18:59:42.298656,14.22732756,.00048248,88.9986,0.3647,117.3390,242.8293,0,U,69394,999,389,.3492103E-4,.93E-6,0
QIANFAN-178,2026-124P,2026-07-01T20:48:39.832416,14.22276522,.00042494,88.9986,0.3573,126.5430,233.6153,0,U,69395,999,390,.45215407E-4,.115E-5,0
QIANFAN-179,2026-124Q,2026-07-01T20:33:31.605120,14.23099513,.00042136,88.9985,0.3556,123.3043,236.8553,0,U,69396,999,390,.42088283E-4,.109E-5,0
QIANFAN-180,2026-124R,2026-07-01T18:44:03.235200,14.23621217,.00045816,88.9986,0.3630,131.3195,228.8392,0,U,69397,999,389,.40416201E-4,.107E-5,0
QIANFAN-181,2026-124S,2026-07-01T21:01:20.403840,14.16651235,.0003061,88.9986,0.3774,103.2411,256.9119,0,U,69398,999,389,.33789484E-4,.82E-6,0
QIANFAN-182,2026-124T,2026-07-01T20:17:08.108736,14.18740715,.00035868,88.9986,0.3728,119.6446,240.5101,0,U,69399,999,389,.45902664E-4,.11E-5,0
QIANFAN-183,2026-125A,2026-07-01T21:25:05.742048,14.16469291,.00157599,88.9955,278.7851,129.7482,230.5098,0,U,69401,999,378,.19736069E-3,.407E-5,0
QIANFAN-184,2026-125B,2026-07-01T21:11:12.483168,14.16889449,.0016571,88.9956,278.7840,124.2440,236.0321,0,U,69402,999,378,.19844372E-3,.413E-5,0
QIANFAN-185,2026-125C,2026-07-01T21:22:20.774208,14.16094233,.00174297,88.9956,278.7850,124.6510,235.6324,0,U,69403,999,378,.20255504E-3,.415E-5,0
QIANFAN-186,2026-125D,2026-07-01T20:56:42.302112,14.17440337,.00158668,88.9956,278.7825,125.6376,234.6293,0,U,69404,999,378,.19336267E-3,.406E-5,0
QIANFAN-187,2026-125E,2026-07-01T22:22:27.650208,14.18351146,.0016398,88.9956,278.7726,126.4229,233.8475,0,U,69405,999,379,.19570689E-3,.418E-5,0
QIANFAN-188,2026-125F,2026-07-01T22:02:49.271712,14.19443529,.00164212,88.9956,278.7703,129.7862,230.4777,0,U,69406,999,379,.19862362E-3,.433E-5,0
QIANFAN-189,2026-125G,2026-07-01T22:11:57.809760,14.18762354,.00156441,88.9956,278.7716,127.3531,232.9086,0,U,69407,999,379,.19040022E-3,.41E-5,0
QIANFAN-190,2026-125H,2026-07-01T22:03:34.915104,14.19225458,.00164355,88.9956,278.7708,128.8222,231.4438,0,U,69408,999,379,.19631427E-3,.426E-5,0
QIANFAN-191,2026-125J,2026-07-01T21:46:17.175936,14.20096924,.00158361,88.9956,278.7687,127.7885,232.4742,0,U,69409,999,379,.1982593E-3,.437E-5,0
QIANFAN-192,2026-125K,2026-07-01T21:37:34.066272,14.20522958,.00166942,88.9957,278.7681,128.0608,232.2092,0,U,69410,999,379,.19839089E-3,.441E-5,0
QIANFAN-193,2026-125L,2026-07-01T21:27:06.070464,14.20965589,.00165776,88.9956,278.7668,128.4284,231.8398,0,U,69411,999,379,.20083615E-3,.45E-5,0
QIANFAN-194,2026-125M,2026-07-01T21:19:05.512800,14.21407356,.00158949,88.9956,278.7659,131.9019,228.3531,0,U,69412,999,378,.20203728E-3,.456E-5,0
QIANFAN-195,2026-125N,2026-07-01T21:11:41.330400,14.21804765,.00170879,88.9956,278.7652,130.5417,229.7265,0,U,69413,999,379,.20174561E-3,.459E-5,0
QIANFAN-196,2026-125P,2026-07-01T21:02:48.105024,14.22299849,.00172095,88.9957,278.7643,130.9239,229.3446,0,U,69414,999,379,.20053913E-3,.461E-5,0
QIANFAN-197,2026-125Q,2026-07-01T20:55:38.382528,14.22744185,.00154617,88.9956,278.7635,128.2107,232.0479,0,U,69415,999,378,.18907363E-3,.439E-5,0
QIANFAN-198,2026-125R,2026-07-01T21:05:08.479104,14.22070935,.00157711,88.9956,278.7646,127.6486,232.6139,0,U,69416,999,379,.19612212E-3,.449E-5,0
QIANFAN-199,2026-125S,2026-07-01T22:22:54.939648,14.23634707,.00175055,88.9956,278.7539,128.2152,232.0619,0,U,69417,999,380,.19653886E-3,.463E-5,0
QIANFAN-200,2026-125T,2026-07-01T21:53:53.565792,14.19644407,.00165151,88.9956,278.7696,126.6059,233.6653,0,U,69418,999,379,.19333174E-3,.423E-5,0
